STARLINK-31859          
1 59848U 24097P   26068.53918534 -.00000828  00000+0 -20568-4 0  9990
2 59848  43.0029 268.2948 0001242 243.0157 117.0568 15.27571299101978
FLOCK 4G-23             
1 62647U 25009AQ  26068.71663397  .00012440  00000+0  46816-3 0  9993
2 62647  97.3979 150.9478 0000905   7.2707 352.8545 15.27262579 63728
